start=new Date('2022-03-10T00:00:00.000Z').valueOf();
sats=[{"CLASSIFICATION_TYPE":"U","NORAD_CAT_ID":"47657","ARG_OF_PERICENTER":"77.3372","MEAN_MOTION_DDOT":"0.0000000000000","TIME_SYSTEM":"UTC","COUNTRY_CODE":"US","REF_FRAME":"TEME","EPOCH":"2022-03-09T17:50:59.736480","PERIAPSIS":"546.186","BSTAR":"0.00020847000000","REV_AT_EPOCH":"5978","LAUNCH_DATE":"2021-02-16","OBJECT_TYPE":"PAYLOAD","APOAPSIS":"548.290","OBJECT_NAME":"STARLINK-2041","DECAY_DATE":null,"PERIOD":"95.593","SEMIMAJOR_AXIS":"6925.373","EPHEMERIS_TYPE":"0","INCLINATION":"53.0529","MEAN_ANOMALY":"282.7787","TLE_LINE2":"2 47657  53.0529 150.0676 0001519  77.3372 282.7787 15.06392136 59781","MEAN_MOTION":"15.06392136","MEAN_MOTION_DOT":"0.00002824","SITE":"AFETR","ELEMENT_SET_NO":"999","RA_OF_ASC_NODE":"150.0676","TLE_LINE1":"1 47657U 21012AP  22068.74374695  .00002824  00000-0  20847-3 0  9998","ECCENTRICITY":"0.00015190","FILE":"3352875","RCS_SIZE":"LARGE","GP_ID":"198360185","CENTER_NAME":"EARTH","MEAN_ELEMENT_THEORY":"SGP4","OBJECT_ID":"2021-012AP"},{"ELEMENT_SET_NO":"999","FILE":"3352425","ECCENTRICITY":"0.00014520","TLE_LINE1":"1 47658U 21012AQ  22068.53734831  .00002692  00000-0  19963-3 0  9998","RA_OF_ASC_NODE":"150.9890","RCS_SIZE":"LARGE","OBJECT_ID":"2021-012AQ","GP_ID":"198324362","CENTER_NAME":"EARTH","MEAN_ELEMENT_THEORY":"SGP4","TLE_LINE2":"2 47658  53.0533 150.9890 0001452  70.7817 289.3329 15.06381807 59778","MEAN_MOTION":"15.06381807","MEAN_MOTION_DOT":"0.00002692","SITE":"AFETR","OBJECT_TYPE":"PAYLOAD","APOAPSIS":"548.275","LAUNCH_DATE":"2021-02-16","DECAY_DATE":null,"PERIOD":"95.593","OBJECT_NAME":"STARLINK-2042","SEMIMAJOR_AXIS":"6925.404","MEAN_ANOMALY":"289.3329","EPHEMERIS_TYPE":"0","INCLINATION":"53.0533","CLASSIFICATION_TYPE":"U","ARG_OF_PERICENTER":"70.7817","NORAD_CAT_ID":"47658","COUNTRY_CODE":"US","EPOCH":"2022-03-09T12:53:46.893984","REF_FRAME":"TEME","TIME_SYSTEM":"UTC","MEAN_MOTION_DDOT":"0.0000000000000","REV_AT_EPOCH":"5977","BSTAR":"0.00019963000000","PERIAPSIS":"546.264"},{"SITE":"AFETR","MEAN_MOTION_DOT":"0.00015310","MEAN_MOTION":"15.06390933","TLE_LINE2":"2 47659  53.0570  29.2757 0001752  71.0674  47.4378 15.06390933  3594","OBJECT_ID":"2021-012AR","CENTER_NAME":"EARTH","GP_ID":"198359184","MEAN_ELEMENT_THEORY":"SGP4","RCS_SIZE":"LARGE","FILE":"3352875","TLE_LINE1":"1 47659U 21012AR  22068.91668981  .00015310  00000-0  10447-2 0  9991","ECCENTRICITY":"0.00017520","RA_OF_ASC_NODE":"29.2757","ELEMENT_SET_NO":"999","REV_AT_EPOCH":"359","BSTAR":"0.00104470000000","PERIAPSIS":"546.028","COUNTRY_CODE":"US","REF_FRAME":"TEME","EPOCH":"2022-03-09T22:00:01.999584","TIME_SYSTEM":"UTC","MEAN_MOTION_DDOT":"0.0000000000000","ARG_OF_PERICENTER":"71.0674","NORAD_CAT_ID":"47659","CLASSIFICATION_TYPE":"U","MEAN_ANOMALY":"47.4378","INCLINATION":"53.0570","EPHEMERIS_TYPE":"0","SEMIMAJOR_AXIS":"6925.376","DECAY_DATE":null,"OBJECT_NAME":"STARLINK-2043","PERIOD":"95.593","APOAPSIS":"548.455","OBJECT_TYPE":"PAYLOAD","LAUNCH_DATE":"2021-02-16"},{"PERIAPSIS":"545.945","REV_AT_EPOCH":"359","BSTAR":"0.00031183000000","TIME_SYSTEM":"UTC","MEAN_MOTION_DDOT":"0.0000000000000","COUNTRY_CODE":"US","EPOCH":"2022-03-09T22:00:01.999584","REF_FRAME":"TEME","NORAD_CAT_ID":"47660","ARG_OF_PERICENTER":"50.5399","CLASSIFICATION_TYPE":"U","MEAN_ANOMALY":"288.1126","INCLINATION":"53.0560","EPHEMERIS_TYPE":"0","SEMIMAJOR_AXIS":"6925.339","PERIOD":"95.592","DECAY_DATE":null,"OBJECT_NAME":"STARLINK-2044","LAUNCH_DATE":"2021-02-16","APOAPSIS":"548.464","OBJECT_TYPE":"PAYLOAD","SITE":"AFETR","MEAN_MOTION_DOT":"0.00004366","MEAN_MOTION":"15.06402957","TLE_LINE2":"2 47660  53.0560  19.2736 0001818  50.5399 288.1126 15.06402957  3595","OBJECT_ID":"2021-012AS","GP_ID":"198359434","CENTER_NAME":"EARTH","MEAN_ELEMENT_THEORY":"SGP4","RCS_SIZE":"LARGE","TLE_LINE1":"1 47660U 21012AS  22068.91668981  .00004366  00000-0  31183-3 0  9993","ECCENTRICITY":"0.00018180","RA_OF_ASC_NODE":"19.2736","FILE":"3352875","ELEMENT_SET_NO":"999"},{"TLE_LINE2":"2 47661  53.0551 129.3527 0001469  78.3604 281.7549 15.06390957 60076","MEAN_MOTION":"15.06390957","MEAN_MOTION_DOT":"0.00003021","SITE":"AFETR","ELEMENT_SET_NO":"999","FILE":"3352875","TLE_LINE1":"1 47661U 21012AT  22068.90039668  .00003021  00000-0  22169-3 0  9998","ECCENTRICITY":"0.00014690","RA_OF_ASC_NODE":"129.3527","RCS_SIZE":"LARGE","OBJECT_ID":"2021-012AT","MEAN_ELEMENT_THEORY":"SGP4","GP_ID":"198360686","CENTER_NAME":"EARTH","CLASSIFICATION_TYPE":"U","ARG_OF_PERICENTER":"78.3604","NORAD_CAT_ID":"47661","EPOCH":"2022-03-09T21:36:34.273152","COUNTRY_CODE":"US","REF_FRAME":"TEME","TIME_SYSTEM":"UTC","MEAN_MOTION_DDOT":"0.0000000000000","REV_AT_EPOCH":"6007","BSTAR":"0.00022169000000","PERIAPSIS":"546.224","APOAPSIS":"548.259","OBJECT_TYPE":"PAYLOAD","LAUNCH_DATE":"2021-02-16","PERIOD":"95.593","DECAY_DATE":null,"OBJECT_NAME":"STARLINK-2051","SEMIMAJOR_AXIS":"6925.376","MEAN_ANOMALY":"281.7549","EPHEMERIS_TYPE":"0","INCLINATION":"53.0551"},{"RCS_SIZE":"LARGE","GP_ID":"198360937","MEAN_ELEMENT_THEORY":"SGP4","CENTER_NAME":"EARTH","OBJECT_ID":"2021-012AU","ELEMENT_SET_NO":"999","RA_OF_ASC_NODE":"129.4464","TLE_LINE1":"1 47662U 21012AU  22068.88102316  .00005273  00000-0  37274-3 0  9991","ECCENTRICITY":"0.00015440","FILE":"3352875","MEAN_MOTION_DOT":"0.00005273","SITE":"AFETR","TLE_LINE2":"2 47662  53.0543 129.4464 0001544  52.6444 307.4685 15.06389954 60094","MEAN_MOTION":"15.06389954","SEMIMAJOR_AXIS":"6925.379","EPHEMERIS_TYPE":"0","INCLINATION":"53.0543","MEAN_ANOMALY":"307.4685","LAUNCH_DATE":"2021-02-16","OBJECT_TYPE":"PAYLOAD","APOAPSIS":"548.314","DECAY_DATE":null,"OBJECT_NAME":"STARLINK-2052","PERIOD":"95.593","MEAN_MOTION_DDOT":"0.0000000000000","TIME_SYSTEM":"UTC","REF_FRAME":"TEME","COUNTRY_CODE":"US","EPOCH":"2022-03-09T21:08:40.401024","PERIAPSIS":"546.175","BSTAR":"0.00037274000000","REV_AT_EPOCH":"6009","CLASSIFICATION_TYPE":"U","NORAD_CAT_ID":"47662","ARG_OF_PERICENTER":"52.6444"},{"ELEMENT_SET_NO":"999","FILE":"3352875","RA_OF_ASC_NODE":"49.2923","TLE_LINE1":"1 47663U 21012AV  22068.91668981 -.00011431  00000-0 -74977-3 0  9997","ECCENTRICITY":"0.00016700","RCS_SIZE":"LARGE","CENTER_NAME":"EARTH","GP_ID":"198359685","MEAN_ELEMENT_THEORY":"SGP4","OBJECT_ID":"2021-012AV","TLE_LINE2":"2 47663  53.0551  49.2923 0001670  54.3639 319.3237 15.06396141  3603","MEAN_MOTION":"15.06396141","MEAN_MOTION_DOT":"-0.00011431","SITE":"AFETR","OBJECT_TYPE":"PAYLOAD","APOAPSIS":"548.382","LAUNCH_DATE":"2021-02-16","DECAY_DATE":null,"OBJECT_NAME":"STARLINK-2053","PERIOD":"95.592","SEMIMAJOR_AXIS":"6925.360","INCLINATION":"53.0551","EPHEMERIS_TYPE":"0","MEAN_ANOMALY":"319.3237","CLASSIFICATION_TYPE":"U","ARG_OF_PERICENTER":"54.3639","NORAD_CAT_ID":"47663","COUNTRY_CODE":"US","REF_FRAME":"TEME","EPOCH":"2022-03-09T22:00:01.999584","MEAN_MOTION_DDOT":"0.0000000000000","TIME_SYSTEM":"UTC","BSTAR":"-0.00074977000000","REV_AT_EPOCH":"360","PERIAPSIS":"546.069"},{"PERIAPSIS":"546.114","REV_AT_EPOCH":"6009","BSTAR":"0.00028196000000","TIME_SYSTEM":"UTC","MEAN_MOTION_DDOT":"0.0000000000000","COUNTRY_CODE":"US","EPOCH":"2022-03-09T21:10:03.055584","REF_FRAME":"TEME","NORAD_CAT_ID":"47664","ARG_OF_PERICENTER":"62.3871","CLASSIFICATION_TYPE":"U","MEAN_ANOMALY":"297.7288","EPHEMERIS_TYPE":"0","INCLINATION":"53.0541","SEMIMAJOR_AXIS":"6925.407","OBJECT_NAME":"STARLINK-2054","DECAY_DATE":null,"PERIOD":"95.593","LAUNCH_DATE":"2021-02-16","OBJECT_TYPE":"PAYLOAD","APOAPSIS":"548.430","SITE":"AFETR","MEAN_MOTION_DOT":"0.00003919","MEAN_MOTION":"15.06380889","TLE_LINE2":"2 47664  53.0541 129.4463 0001672  62.3871 297.7288 15.06380889 60095","OBJECT_ID":"2021-012AW","CENTER_NAME":"EARTH","GP_ID":"198359935","MEAN_ELEMENT_THEORY":"SGP4","RCS_SIZE":"LARGE","ECCENTRICITY":"0.00016720","TLE_LINE1":"1 47664U 21012AW  22068.88197981  .00003919  00000-0  28196-3 0  9993","RA_OF_ASC_NODE":"129.4463","FILE":"3352875","ELEMENT_SET_NO":"999"},{"MEAN_MOTION_DOT":"0.00004814","SITE":"AFETR","TLE_LINE2":"2 47665  53.0547 124.5426 0001053  99.6834 260.4274 15.06401038 60151","MEAN_MOTION":"15.06401038","RCS_SIZE":"LARGE","OBJECT_ID":"2021-012AX","CENTER_NAME":"EARTH","GP_ID":"198360186","MEAN_ELEMENT_THEORY":"SGP4","ELEMENT_SET_NO":"999","FILE":"3352875","TLE_LINE1":"1 47665U 21012AX  22068.85751520  .00004814  00000-0  34182-3 0  9993","ECCENTRICITY":"0.00010530","RA_OF_ASC_NODE":"124.5426","REF_FRAME":"TEME","COUNTRY_CODE":"US","EPOCH":"2022-03-09T20:34:49.313280","TIME_SYSTEM":"UTC","MEAN_MOTION_DDOT":"0.0000000000000","REV_AT_EPOCH":"6015","BSTAR":"0.00034182000000","PERIAPSIS":"546.481","CLASSIFICATION_TYPE":"U","ARG_OF_PERICENTER":"99.6834","NORAD_CAT_ID":"47665","SEMIMAJOR_AXIS":"6925.345","MEAN_ANOMALY":"260.4274","EPHEMERIS_TYPE":"0","INCLINATION":"53.0547","APOAPSIS":"547.940","OBJECT_TYPE":"PAYLOAD","LAUNCH_DATE":"2021-02-16","DECAY_DATE":null,"OBJECT_NAME":"STARLINK-2056","PERIOD":"95.592"},{"FILE":"3352875","ECCENTRICITY":"0.00015670","TLE_LINE1":"1 47666U 21012AY  22068.89070112  .00003898  00000-0  28049-3 0  9995","RA_OF_ASC_NODE":"124.4054","ELEMENT_SET_NO":"999","OBJECT_ID":"2021-012AY","GP_ID":"198360437","CENTER_NAME":"EARTH","MEAN_ELEMENT_THEORY":"SGP4","RCS_SIZE":"LARGE","MEAN_MOTION":"15.06392087","TLE_LINE2":"2 47666  53.0543 124.4054 0001567  67.1665 292.9489 15.06392087 60168","SITE":"AFETR","MEAN_MOTION_DOT":"0.00003898","PERIOD":"95.593","DECAY_DATE":null,"OBJECT_NAME":"STARLINK-2057","APOAPSIS":"548.323","OBJECT_TYPE":"PAYLOAD","LAUNCH_DATE":"2021-02-16","MEAN_ANOMALY":"292.9489","EPHEMERIS_TYPE":"0","INCLINATION":"53.0543","SEMIMAJOR_AXIS":"6925.373","ARG_OF_PERICENTER":"67.1665","NORAD_CAT_ID":"47666","CLASSIFICATION_TYPE":"U","REV_AT_EPOCH":"6016","BSTAR":"0.00028049000000","PERIAPSIS":"546.153","EPOCH":"2022-03-09T21:22:36.576768","COUNTRY_CODE":"US","REF_FRAME":"TEME","TIME_SYSTEM":"UTC","MEAN_MOTION_DDOT":"0.0000000000000"}];
